*******************************************************************************
Ephemeris / WWW_USER Mon Oct 15 11:05:03 2018 Pasadena, USA      / Horizons    
*******************************************************************************
Target body name: Sun (10)                        {source: DE431mx}
Center body name: Solar System Barycenter (0)     {source: DE431mx}
Center-site name: BODY CENTER
*******************************************************************************
Start time      : A.D. 2018-Oct-07 00:00:00.0000 TDB
Stop  time      : A.D. 2018-Nov-06 00:00:00.0000 TDB
Step-size       : 1440 minutes
*******************************************************************************
Center geodetic : 0.00000000,0.00000000,0.0000000 {E-lon(deg),Lat(deg),Alt(km)}
Center cylindric: 0.00000000,0.00000000,0.0000000 {E-lon(deg),Dxy(km),Dz(km)}
Center radii    : (undefined)                                                  
Output units    : AU-D                                                         
Output type     : GEOMETRIC cartesian states
Output format   : 2 (position and velocity)
Reference frame : ICRF/J2000.0                                                 
Coordinate systm: Ecliptic and Mean Equinox of Reference Epoch                 
*******************************************************************************
            JDTDB,            Calendar Date (TDB),                      X,                      Y,                      Z,                     VX,                     VY,                     VZ,
**************************************************************************************************************************************************************************************************
$$SOE
2458398.500000000, A.D. 2018-Oct-07 00:00:00.0000, -9.444186676842538E-05,  7.230566866673545E-03, -7.400677783567876E-05, -7.567855338942266E-06,  2.654124838404618E-06,  1.891238929055918E-07,
2458399.500000000, A.D. 2018-Oct-08 00:00:00.0000, -1.020110240877871E-04,  7.233216391868889E-03, -7.381761776911831E-05, -7.570456288071481E-06,  2.644932410404150E-06,  1.891960631651709E-07,
2458400.500000000, A.D. 2018-Oct-09 00:00:00.0000, -1.095827735597032E-04,  7.235856745277059E-03, -7.362838604549695E-05, -7.573039882158072E-06,  2.635781328003786E-06,  1.892672248115125E-07,
2458401.500000000, A.D. 2018-Oct-10 00:00:00.0000, -1.171570985410153E-04,  7.238487968423231E-03, -7.343908362091404E-05, -7.575607542429643E-06,  2.626671938264363E-06,  1.893374820379051E-07,
2458402.500000000, A.D. 2018-Oct-11 00:00:00.0000, -1.247339838016828E-04,  7.241110103144190E-03, -7.324971134975035E-05, -7.578160673408990E-06,  2.617604518160534E-06,  1.894069341194622E-07,
2458403.500000000, A.D. 2018-Oct-12 00:00:00.0000, -1.323134155066396E-04,  7.243723191520690E-03, -7.306026998949559E-05, -7.580700660070726E-06,  2.608579279446222E-06,  1.894756755889952E-07,
2458404.500000000, A.D. 2018-Oct-13 00:00:00.0000, -1.398953811949563E-04,  7.246327275814538E-03, -7.287076020540354E-05, -7.583228865316122E-06,  2.599596373221667E-06,  1.895437964181038E-07,
2458405.500000000, A.D. 2018-Oct-14 00:00:00.0000, -1.474798697566110E-04,  7.248922398410132E-03, -7.268118257496195E-05, -7.585746627696994E-06,  2.590655894257502E-06,  1.896113821987181E-07,
2458406.500000000, A.D. 2018-Oct-15 00:00:00.0000, -1.550668714070811E-04,  7.251508601760199E-03, -7.249153759217997E-05, -7.588255259323373E-06,  2.581757885123079E-06,  1.896785143241260E-07,
2458407.500000000, A.D. 2018-Oct-16 00:00:00.0000, -1.626563776599144E-04,  7.254085928335599E-03, -7.230182567169775E-05, -7.590756043911132E-06,  2.572902340170582E-06,  1.897452701696540E-07,
2458408.500000000, A.D. 2018-Oct-17 00:00:00.0000, -1.702483812974040E-04,  7.256654420579059E-03, -7.211204715271359E-05, -7.593250234933597E-06,  2.564089209426781E-06,  1.898117232738897E-07,
2458409.500000000, A.D. 2018-Oct-18 00:00:00.0000, -1.778428763394541E-04,  7.259214120862780E-03, -7.192220230273014E-05, -7.595739053849211E-06,  2.555318402445073E-06,  1.898779435221623E-07,
2458410.500000000, A.D. 2018-Oct-19 00:00:00.0000, -1.854398580107027E-04,  7.261765071449882E-03, -7.173229132111148E-05, -7.598223688385497E-06,  2.546589792171653E-06,  1.899439973348268E-07,
2458411.500000000, A.D. 2018-Oct-20 00:00:00.0000, -1.930393227059520E-04,  7.264307314459769E-03, -7.154231434245421E-05, -7.600705290867856E-06,  2.537903218881194E-06,  1.900099478638139E-07,
2458412.500000000, A.D. 2018-Oct-21 00:00:00.0000, -2.006412679539475E-04,  7.266840891837465E-03, -7.135227143974930E-05, -7.603184976590178E-06,  2.529258494239412E-06,  1.900758552018730E-07,
2458413.500000000, A.D. 2018-Oct-22 00:00:00.0000, -2.082456923795519E-04,  7.269365845327120E-03, -7.116216262733176E-05, -7.605663822232906E-06,  2.520655405552306E-06,  1.901417766099408E-07,
2458414.500000000, A.D. 2018-Oct-23 00:00:00.0000, -2.158525956643645E-04,  7.271882216449870E-03, -7.097198786358680E-05, -7.608142864342824E-06,  2.512093720264575E-06,  1.902077667691393E-07,
2458415.500000000, A.D. 2018-Oct-24 00:00:00.0000, -2.234619785058626E-04,  7.274390046486359E-03, -7.078174705339256E-05, -7.610623097897841E-06,  2.503573190772985E-06,  1.902738780650288E-07,
2458416.500000000, A.D. 2018-Oct-25 00:00:00.0000, -2.310738425751619E-04,  7.276889376464244E-03, -7.059144005025431E-05, -7.613105474988984E-06,  2.495093559623982E-06,  1.903401609129172E-07,
2458417.500000000, A.D. 2018-Oct-26 00:00:00.0000, -2.386881904735364E-04,  7.279380247151148E-03, -7.040106665809660E-05, -7.615590903675829E-06,  2.486654565178202E-06,  1.904066641332532E-07,
2458418.500000000, A.D. 2018-Oct-27 00:00:00.0000, -2.463050256879250E-04,  7.281862699053526E-03, -7.021062663263403E-05, -7.618080247081494E-06,  2.478255947808241E-06,  1.904734353952315E-07,
2458419.500000000, A.D. 2018-Oct-28 00:00:00.0000, -2.539243525456413E-04,  7.284336772421999E-03, -7.002011968228138E-05, -7.620574322787939E-06,  2.469897456688998E-06,  1.905405217313240E-07,
2458420.500000000, A.D. 2018-Oct-29 00:00:00.0000, -2.615461761687441E-04,  7.286802507263899E-03, -6.982954546848195E-05, -7.623073902711739E-06,  2.461578857369772E-06,  1.906079701592676E-07,
2458421.500000000, A.D. 2018-Oct-30 00:00:00.0000, -2.691705024285098E-04,  7.289259943363689E-03, -6.963890360537416E-05, -7.625579713496858E-06,  2.453299940027900E-06,  1.906758284050602E-07,
2458422.500000000, A.D. 2018-Oct-31 00:00:00.0000, -2.767973379006741E-04,  7.291709120312125E-03, -6.944819365866003E-05, -7.628092437687548E-06,  2.445060528658140E-06,  1.907441457717838E-07,
2458423.500000000, A.D. 2018-Nov-01 00:00:00.0000, -2.844266898223132E-04,  7.294150077545036E-03, -6.925741514352785E-05, -7.630612715870694E-06,  2.436860491208201E-06,  1.908129741723981E-07,
2458424.500000000, A.D. 2018-Nov-02 00:00:00.0000, -2.920585660514558E-04,  7.296582854392777E-03, -6.906656752144674E-05, -7.633141150044850E-06,  2.428699750702514E-06,  1.908823693535474E-07,
2458425.500000000, A.D. 2018-Nov-03 00:00:00.0000, -2.996929750308121E-04,  7.299007490141281E-03, -6.887565019562871E-05, -7.635678308544194E-06,  2.420578297394992E-06,  1.909523923438376E-07,
2458426.500000000, A.D. 2018-Nov-04 00:00:00.0000, -3.073299257573673E-04,  7.301424024105806E-03, -6.868466250491560E-05, -7.638224732918901E-06,  2.412496201957238E-06,  1.910231111640059E-07,
2458427.500000000, A.D. 2018-Nov-05 00:00:00.0000, -3.149694277600308E-04,  7.303832495718353E-03, -6.849360371580846E-05, -7.640780947249750E-06,  2.404453629641378E-06,  1.910946028379160E-07,
2458428.500000000, A.D. 2018-Nov-06 00:00:00.0000, -3.226114910880439E-04,  7.306232944629678E-03, -6.830247301231880E-05, -7.643347470453426E-06,  2.396450855256466E-06,  1.911669557423547E-07,
$$EOE
**************************************************************************************************************************************************************************************************
Coordinate system description:

  Ecliptic and Mean Equinox of Reference Epoch

    Reference epoch: J2000.0
    XY-plane: plane of the Earth's orbit at the reference epoch
              Note: obliquity of 84381.448 arcseconds wrt ICRF equator (IAU76)
    X-axis  : out along ascending node of instantaneous plane of the Earth's
              orbit and the Earth's mean equator at the reference epoch
    Z-axis  : perpendicular to the xy-plane in the directional (+ or -) sense
              of Earth's north pole at the reference epoch.

  Symbol meaning [1 au= 149597870.700 km, 1 day= 86400.0 s]:

    JDTDB    Julian Day Number, Barycentric Dynamical Time
      X      X-component of position vector (au)                               
      Y      Y-component of position vector (au)                               
      Z      Z-component of position vector (au)                               
      VX     X-component of velocity vector (au/day)                           
      VY     Y-component of velocity vector (au/day)                           
      VZ     Z-component of velocity vector (au/day)                           

Geometric states/elements have no aberrations applied.

 Computations by ...
     Solar System Dynamics Group, Horizons On-Line Ephemeris System
     4800 Oak Grove Drive, Jet Propulsion Laboratory
     Pasadena, CA  91109   USA
     Information: http://ssd.jpl.nasa.gov/
     Connect    : telnet://ssd.jpl.nasa.gov:6775  (via browser)
                  http://ssd.jpl.nasa.gov/?horizons
                  telnet ssd.jpl.nasa.gov 6775    (via command-line)
     Author     : Jon.D.Giorgini@jpl.nasa.gov
*******************************************************************************
